MTI                     
1 26102U 00014A   22026.52859265  .00040989  00000+0  32579-3 0  9998
2 26102  97.4623 311.0832 0005515 175.3060 184.8709 15.71123241216238
CFESAT                  
1 30777U 07006F   22025.65078815  .00020894  00000+0  43740-3 0  9991
2 30777  35.4221 148.1326 0004074 140.0981 220.0047 15.44534621827003
SPIRALE A               
1 33751U 09008C   22025.42295965  .00000098  00000+0  44368-3 0  9993
2 33751   2.0866  29.6149 5408409 337.7230   5.6494  4.58818550188244
SPIRALE B               
1 33752U 09008D   22025.53814008  .00001086  00000+0  36864-3 0  9991
2 33752   1.8064 199.3878 6867203 350.6079   1.1797  2.79888509121069
SAPPHIRE                
1 39088U 13009C   22026.17292715  .00000018  00000+0  21622-4 0  9992
2 39088  98.4311 225.4409 0011039 345.5172  14.5695 14.34264881466741
